[{"OBJECT_NAME":"STARLINK-32650","OBJECT_ID":"2024-231P","EPOCH":"2026-03-09T16:12:37.159776","MEAN_MOTION":15.30203554,"ECCENTRICITY":0.00011617,"INCLINATION":53.161,"RA_OF_ASC_NODE":219.8771,"ARG_OF_PERICENTER":85.7123,"MEAN_ANOMALY":274.401,"EPHEMERIS_TYPE":0,"CLASSIFICATION_TYPE":"U","NORAD_CAT_ID":62231,"ELEMENT_SET_NO":999,"REV_AT_EPOCH":7176,"BSTAR":0.0010614358,"MEAN_MOTION_DOT":0.00031213,"MEAN_MOTION_DDOT":0},{"OBJECT_NAME":"KUIPER-00175","OBJECT_ID":"2025-301C","EPOCH":"2026-03-09T23:30:37.840032","MEAN_MOTION":15.30996371,"ECCENTRICITY":0.00022792,"INCLINATION":51.8781,"RA_OF_ASC_NODE":63.6978,"ARG_OF_PERICENTER":50.5695,"MEAN_ANOMALY":309.549,"EPHEMERIS_TYPE":0,"CLASSIFICATION_TYPE":"U","NORAD_CAT_ID":67135,"ELEMENT_SET_NO":999,"REV_AT_EPOCH":1385,"BSTAR":0.00066732304,"MEAN_MOTION_DOT":0.00019968,"MEAN_MOTION_DDOT":0}]
