STARLINK-32650          
1 62231U 24231P   26068.67543009  .00031213  00000+0  10614-2 0  9995
2 62231  53.1610 219.8771 0001161  85.7123 274.4010 15.30203554 71769
KUIPER-00175            
1 67135U 25301C   26068.97960463  .00019968  00000+0  66732-3 0  9998
2 67135  51.8781  63.6978 0002279  50.5695 309.5490 15.30996371 13854
